ONEWEB-0555             
1 56057U 23043M   25224.12763284  .00000003  00000+0 -25636-4 0  9992
2 56057  87.9034 290.3748 0002002 114.3849 245.7491 13.16594043119204
ONEWEB-0557             
1 56058U 23043N   25223.91388408 -.00000115  00000+0 -33318-3 0  9990
2 56058  87.9026 290.4376 0003110 115.3954 244.7499 13.16593700118264
ONEWEB-0558             
1 56059U 23043P   25223.92005158 -.00000002  00000+0 -35534-4 0  9998
2 56059  87.9263 305.6943 0001777  86.1762 273.9575 13.21826965117385
ONEWEB-0559             
1 56060U 23043Q   25223.75760355 -.00000269  00000+0 -68254-3 0  9997
2 56060  87.9263 305.7187 0002149  87.9549 272.1831 13.21825262117378
ONEWEB-0566             
1 56061U 23043R   25224.50825852  .00000000  00000+0 -30645-4 0  9992
2 56061  87.9262 305.5672 0001933  89.1183 271.0173 13.21825165118362
ONEWEB-0568             
1 56062U 23043S   25223.70331199  .00000029  00000+0  42162-4 0  9997
2 56062  87.9039 290.4553 0001971 106.7706 253.3641 13.16593712118259
ONEWEB-0574             
1 56063U 23043T   25223.74499063 -.00000032  00000+0 -10927-3 0  9996
2 56063  87.9263 305.7074 0002227 100.5205 259.6180 13.21827192117397
ONEWEB-0575             
1 56064U 23043U   25223.92495679  .00000007  00000+0 -15149-4 0  9999
2 56064  87.9030 290.4173 0002383 106.2836 253.8557 13.16595678118273
ONEWEB-0576             
1 56065U 23043V   25223.90596698 -.00000099  00000+0 -29318-3 0  9995
2 56065  87.9041 290.4128 0002052 103.6147 256.5212 13.16594080118268
ONEWEB-0577             
1 56066U 23043W   25223.68430768 -.00000025  00000+0 -98091-4 0  9990
2 56066  87.9043 290.4582 0002605 107.4438 252.6978 13.16595000118263
ONEWEB-0578             
1 56067U 23043X   25224.18655206  .00001277  00000+0  30602-2 0  9993
2 56067  87.9261 305.6299 0001854 105.2946 254.8392 13.21834482118322
ONEWEB-0579             
1 56068U 23043Y   25224.47987388  .00000096  00000+0  20209-3 0  9996
2 56068  87.9260 305.5576 0002120  91.4158 268.7219 13.21827694118371
ONEWEB-0581             
1 56069U 23043Z   25223.69063156 -.00000048  00000+0 -15950-3 0  9994
2 56069  87.9025 290.4814 0002530  99.4186 260.7231 13.16595925119147
ONEWEB-0609             
1 56070U 23043AA  25223.78253655  .00000011  00000+0 -56337-5 0  9996
2 56070  87.9084 320.9293 0001845  98.2014 261.9325 13.15550209115754
ONEWEB-0613             
1 56071U 23043AB  25223.77778034  .00000012  00000+0 -27333-5 0  9994
2 56071  87.9087 320.9434 0002028  93.1038 267.0325 13.15550439115751
ONEWEB-0630             
1 56072U 23043AC  25223.77303109 -.00000056  00000+0 -18381-3 0  9992
2 56072  87.9077 320.9201 0001953  90.2725 269.8629 13.15547613115746
ONEWEB-0632             
1 56073U 23043AD  25223.76827769 -.00000073  00000+0 -22825-3 0  9992
2 56073  87.9083 320.9412 0002173  98.8986 261.2390 13.15547170115745
ONEWEB-0633             
1 56074U 23043AE  25223.76194843 -.00000058  00000+0 -18745-3 0  9992
2 56074  87.9071 320.9075 0001770  87.2967 272.8366 13.15548025115720
ONEWEB-0634             
1 56075U 23043AF  25223.82373228 -.00000088  00000+0 -26745-3 0  9998
2 56075  87.9091 320.9342 0001628 100.5228 259.6086 13.15547069115720
ONEWEB-0635             
1 56076U 23043AG  25224.50350672  .00000086  00000+0  19437-3 0  9999
2 56076  87.9060 320.7697 0002252 100.5516 259.5868 13.15548874116758
ONEWEB-0636             
1 56077U 23043AH  25223.81105893  .00000067  00000+0  14482-3 0  9990
2 56077  87.9069 320.9212 0002162 100.5903 259.5471 13.15547167115734
ONEWEB-0637             
1 56078U 23043AJ  25223.80474542  .00000155  00000+0  37636-3 0  9994
2 56078  87.9079 320.9342 0002070 109.3234 250.8121 13.15549506115759
ONEWEB-0647             
1 56079U 23043AK  25224.02813170  .00000143  00000+0  34553-3 0  9996
2 56079  87.9085 320.9003 0002120  95.8535 264.2837 13.15550401115771
ONEWEB-0651             
1 56080U 23043AL  25223.79521488  .00000152  00000+0  36875-3 0  9998
2 56080  87.9089 320.9363 0002173 104.8291 255.3080 13.15549938116948
ONEWEB-0718             
1 56081U 23043AM  25223.79047791  .00000069  00000+0  14872-3 0  9999
2 56081  87.9085 320.9202 0001400 107.6631 252.4652 13.15548302115753
ONEWEB-0561             
1 56710U 23068A   25224.56460714  .00000171  00000+0  38864-3 0  9996
2 56710  87.9290 335.9557 0002412  96.4047 263.7361 13.20772161109460
ONEWEB-0668             
1 56711U 23068B   25223.92096624  .00000038  00000+0  65814-4 0  9999
2 56711  87.9039 290.4035 0001621 110.8130 249.3175 13.16597059111083
ONEWEB-0676             
1 56712U 23068C   25224.50919862  .00000772  00000+0  19845-2 0  9999
2 56712  87.9032 290.3085 0002387  96.3377 263.8025 13.16592828111783
ONEWEB-0677             
1 56713U 23068D   25223.79600271  .00000027  00000+0  33458-4 0  9992
2 56713  87.9290 336.0848 0002141 105.3008 254.8362 13.20772476108969
ONEWEB-0678             
1 56714U 23068E   25223.83482360 -.00000346  00000+0 -95196-3 0  9997
2 56714  87.9090 320.8828 0002071  89.5864 270.5504 13.15547679108616
ONEWEB-0679             
1 56715U 23068F   25223.94633516  .00000056  00000+0  11353-3 0  9990
2 56715  87.9034 290.4129 0002208 110.6721 249.4647 13.16592861111038
ONEWEB-0680             
1 56716U 23068G   25223.72606486  .00000131  00000+0  28454-3 0  9997
2 56716  87.9254 305.7088 0001744 116.8427 243.2885 13.21826823110211
ONEWEB-0681             
1 56717U 23068H   25224.46269368 -.00019229  00000+0 -45732-1 0  9990
2 56717  87.9256 305.5786 0000577 236.3908 123.7171 13.23221720111007
ONEWEB-0682             
1 56718U 23068J   25223.78491854  .00000031  00000+0  47044-4 0  9992
2 56718  87.9068 320.9179 0001818 115.2568 244.8751 13.15548795108776
ONEWEB-0683             
1 56719U 23068K   25223.80630660  .00000082  00000+0  18379-3 0  9990
2 56719  87.9087 320.8883 0001797 107.3387 252.7940 13.15546810108747
ONEWEB-0684             
1 56720U 23068L   25224.19451336  .00000168  00000+0  41238-3 0  9991
2 56720  87.9061 320.8161 0001956  56.2573 303.8743 13.15547493109328
ONEWEB-0686             
1 56721U 23068M   25223.70803213  .00000028  00000+0  40068-4 0  9999
2 56721  87.9026 290.4929 0001721  98.2093 261.9233 13.16596294110994
ONEWEB-0694             
1 56722U 23068N   25223.90281021 -.00000003  00000+0 -41883-4 0  9990
2 56722  87.9041 290.3789 0001834 109.4512 250.6817 13.16593457111072
ONEWEB-0696             
1 56723U 23068P   25223.99961951  .00000227  00000+0  56816-3 0  9994
2 56723  87.9084 320.9032 0001964  91.2827 268.8528 13.15546058109411
ONEWEB-0703             
1 56724U 23068Q   25224.00911619  .00000027  00000+0  38402-4 0  9994
2 56724  87.9065 320.8891 0002857  83.8221 276.3234 13.15546241109300
ONEWEB-0721             
1 56725U 23068R   25223.91785826  .00000084  00000+0  16760-3 0  9998
2 56725  86.6846 184.0841 0002033  81.5455 278.5909 13.22442034117067
ONEWEB-0015             
1 61594U 24188A   25223.84975880  .00000035  00000+0  62237-4 0  9992
2 61594  87.8804  82.7514 0002104  99.4112 260.7254 13.11414854 43917
ONEWEB-0687             
1 61595U 24188B   25223.94276025  .00000006  00000+0 -18104-4 0  9992
2 61595  87.9022  67.4542 0001576 107.2050 252.9254 13.17648269 45171
ONEWEB-0688             
1 61596U 24188C   25223.81957240  .00000076  00000+0  16351-3 0  9991
2 61596  87.9023  67.4789 0002656 113.2755 246.8657 13.17647940 45157
ONEWEB-0689             
1 61597U 24188D   25223.95994955 -.00000338  00000+0 -98867-3 0  9996
2 61597  87.8760  82.6951 0001418  89.7993 270.3298 13.11418443 43925
ONEWEB-0690             
1 61598U 24188E   25224.35160834  .00000225  00000+0  59822-3 0  9994
2 61598  87.8805  82.5839 0002307  69.6573 290.4803 13.11416646 42263
ONEWEB-0691             
1 61599U 24188F   25224.34653541  .00000055  00000+0  11853-3 0  9999
2 61599  87.8722  82.5662 0002021  92.0713 268.0647 13.11417734 42283
ONEWEB-0692             
1 61600U 24188G   25223.90909505  .00000555  00000+0  15295-2 0  9995
2 61600  87.8787  82.7427 0001076  53.9288 306.1940 13.11418602 42151
ONEWEB-0693             
1 61601U 24188H   25224.51481921  .00000006  00000+0 -18408-4 0  9994
2 61601  87.9026  67.3576 0002589  78.4695 281.6727 13.17649667 43465
ONEWEB-0695             
1 61602U 24188J   25223.88531995 -.00000006  00000+0 -53087-4 0  9994
2 61602  87.8791  82.7336 0001123  81.9384 278.1871 13.11421896 43924
ONEWEB-0697             
1 61603U 24188K   25223.99387232  .00000387  00000+0  10556-2 0  9992
2 61603  87.8782  82.7047 0001214  56.3043 303.8200 13.11415886 42207
ONEWEB-0698             
1 61604U 24188L   25224.04785148  .00033410  00000+0  93544-1 0  9998
2 61604  87.8787  82.7071 0000908  78.5442 281.5788 13.11673133 41997
ONEWEB-0699             
1 61605U 24188M   25224.12036116  .00000068  00000+0  15986-3 0  9991
2 61605  87.8784  97.8974 0001458  59.5552 300.5720 13.10370779 40969
ONEWEB-0700             
1 61606U 24188N   25224.04565443 -.00000055  00000+0 -19487-3 0  9991
2 61606  87.8744  97.8061 0001043  79.6921 280.4324 13.10369639 41001
ONEWEB-0701             
1 61607U 24188P   25224.36767264 -.00000615  00000+0 -17990-2 0  9990
2 61607  87.8778  97.8555 0001299  50.5478 309.5764 13.10373366 41198
ONEWEB-0702             
1 61608U 24188Q   25223.86500416 -.00000529  00000+0 -15288-2 0  9991
2 61608  87.8718  82.6919 0000939  61.3662 298.7561 13.11415031 43940
ONEWEB-0704             
1 61609U 24188R   25224.12698915 -.00000246  00000+0 -74192-3 0  9990
2 61609  87.8804  97.8466 0000842  57.1422 302.9786 13.10371015 40960
ONEWEB-0705             
1 61610U 24188S   25223.90289666 -.00000502  00000+0 -14737-2 0  9999
2 61610  87.8779  97.9312 0001013 123.6633 236.4591 13.10371842 41096
ONEWEB-0706             
1 61611U 24188T   25224.34611764  .00000293  00000+0  80305-3 0  9997
2 61611  87.8782  97.8701 0001307  81.8066 278.3210 13.10413484 41040
